ALOS (DAICHI)           
1 28931U 06002A   26071.83868591  .00001781  00000+0  30646-3 0  9993
2 28931  98.1221  27.7783 0000819  61.2913 298.8374 14.69822493 73944
H-2A R/B                
1 28932U 06002B   26071.38053529  .00010669  00000+0  53302-3 0  9990
2 28932  98.2411 218.6356 0051937 231.7636 127.8914 15.16485542 94843
RESURS-DK 1             
1 29228U 06021A   26071.70939352  .00003921  00000+0  22908-3 0  9994
2 29228  69.9325 229.2110 0001578 160.0959 200.0269 15.12768732 87980
CZ-4B R/B               
1 29507U 06046C   26071.70956249  .00004951  00000+0  25135-3 0  9994
2 29507  97.5594 116.6107 0031697 256.3443 103.4260 15.16939644 60504
CZ-2C R/B               
1 31114U 07010B   26071.75525006  .00000156  00000+0  91173-4 0  9990
2 31114  98.3980 184.8801 0057868 285.5049  73.9743 14.20247491980156
COSMO-SKYMED 1          
1 31598U 07023A   26071.80697666  .00004488  00000+0  39961-3 0  9996
2 31598  97.8880 262.8637 0001508  97.2661 262.8731 14.96563676 15375
COSMOS 2428             
1 31792U 07029A   26071.86208734  .00000033  00000+0  43161-4 0  9998
2 31792  70.9436 196.6845 0009243 273.9053  86.1011 14.12946785964541
SL-16 R/B               
1 31793U 07029B   26071.69535955  .00000170  00000+0  11276-3 0  9991
2 31793  70.9758 166.0673 0002274 276.0061 251.2586 14.14834317965798
KORONAS-FOTON           
1 33504U 09003A   26071.61708823  .00010403  00000+0  23169-3 0  9999
2 33504  82.4279 272.8339 0011450 140.0753 220.1339 15.43384574946197
CZ-2C R/B               
1 37731U 11030B   26071.78683234  .00002006  00000+0  25847-3 0  9999
2 37731  97.8543  28.9877 0052117 341.9542  78.8297 14.81236481790559
H-2A R/B                
1 38341U 12025E   26071.87391455  .00003576  00000+0  32577-3 0  9994
2 38341  98.4737  39.1754 0043206 303.6931  56.0171 14.95197851748692
SHIJIAN-16 (SJ-16)      
1 39358U 13057A   26071.84688778  .00003390  00000+0  33329-3 0  9993
2 39358  74.9728 179.1116 0015389 104.3757 255.9141 14.92364244671972
SL-4 R/B                
1 39679U 14021B   26070.96624170  .00015383  00000+0  33848-3 0  9990
2 39679  51.6083 326.1718 0097301 111.2955 249.8451 15.39266038656622
ALOS-2                  
1 39766U 14029A   26071.82984696  .00002086  00000+0  28585-3 0  9991
2 39766  97.9185 170.3809 0001489  96.1503 263.9879 14.79518630637336
YAOGAN-29               
1 41038U 15069A   26071.83072181  .00000537  00000+0  72819-4 0  9998
2 41038  98.0145 100.2687 0001673  31.2890 328.8423 14.82998884556343
ASTRO-H (HITOMI)        
1 41337U 16012A   26071.80700867  .00003786  00000+0  22130-3 0  9994
2 41337  31.0005 336.4315 0009729   2.6624 357.4065 15.10030451552700
HXMT (HUIYAN)           
1 42758U 17034A   26071.87124595  .00007075  00000+0  35301-3 0  9991
2 42758  43.0161 358.9845 0033228 255.3231 104.3932 15.17515451483028
