[{"OBJECT_NAME":"ALOS (DAICHI)","OBJECT_ID":"2006-002A","EPOCH":"2026-03-12T20:07:42.462624","MEAN_MOTION":14.69822493,"ECCENTRICITY":8.19e-5,"INCLINATION":98.1221,"RA_OF_ASC_NODE":27.7783,"ARG_OF_PERICENTER":61.2913,"MEAN_ANOMALY":298.8374,"EPHEMERIS_TYPE":0,"CLASSIFICATION_TYPE":"U","NORAD_CAT_ID":28931,"ELEMENT_SET_NO":999,"REV_AT_EPOCH":7394,"BSTAR":0.00030646,"MEAN_MOTION_DOT":1.781e-5,"MEAN_MOTION_DDOT":0},{"OBJECT_NAME":"H-2A R/B","OBJECT_ID":"2006-002B","EPOCH":"2026-03-12T09:07:58.249056","MEAN_MOTION":15.16485542,"ECCENTRICITY":0.0051937,"INCLINATION":98.2411,"RA_OF_ASC_NODE":218.6356,"ARG_OF_PERICENTER":231.7636,"MEAN_ANOMALY":127.8914,"EPHEMERIS_TYPE":0,"CLASSIFICATION_TYPE":"U","NORAD_CAT_ID":28932,"ELEMENT_SET_NO":999,"REV_AT_EPOCH":9484,"BSTAR":0.00053302,"MEAN_MOTION_DOT":0.00010669,"MEAN_MOTION_DDOT":0},{"OBJECT_NAME":"RESURS-DK 1","OBJECT_ID":"2006-021A","EPOCH":"2026-03-12T17:01:31.600128","MEAN_MOTION":15.12768732,"ECCENTRICITY":0.0001578,"INCLINATION":69.9325,"RA_OF_ASC_NODE":229.211,"ARG_OF_PERICENTER":160.0959,"MEAN_ANOMALY":200.0269,"EPHEMERIS_TYPE":0,"CLASSIFICATION_TYPE":"U","NORAD_CAT_ID":29228,"ELEMENT_SET_NO":999,"REV_AT_EPOCH":8798,"BSTAR":0.00022908,"MEAN_MOTION_DOT":3.921e-5,"MEAN_MOTION_DDOT":0},{"OBJECT_NAME":"CZ-4B R/B","OBJECT_ID":"2006-046C","EPOCH":"2026-03-12T17:01:46.199136","MEAN_MOTION":15.16939644,"ECCENTRICITY":0.0031697,"INCLINATION":97.5594,"RA_OF_ASC_NODE":116.6107,"ARG_OF_PERICENTER":256.3443,"MEAN_ANOMALY":103.426,"EPHEMERIS_TYPE":0,"CLASSIFICATION_TYPE":"U","NORAD_CAT_ID":29507,"ELEMENT_SET_NO":999,"REV_AT_EPOCH":6050,"BSTAR":0.00025135,"MEAN_MOTION_DOT":4.951e-5,"MEAN_MOTION_DDOT":0},{"OBJECT_NAME":"CZ-2C R/B","OBJECT_ID":"2007-010B","EPOCH":"2026-03-12T18:07:33.605184","MEAN_MOTION":14.20247491,"ECCENTRICITY":0.0057868,"INCLINATION":98.398,"RA_OF_ASC_NODE":184.8801,"ARG_OF_PERICENTER":285.5049,"MEAN_ANOMALY":73.9743,"EPHEMERIS_TYPE":0,"CLASSIFICATION_TYPE":"U","NORAD_CAT_ID":31114,"ELEMENT_SET_NO":999,"REV_AT_EPOCH":98015,"BSTAR":9.1173e-5,"MEAN_MOTION_DOT":1.56e-6,"MEAN_MOTION_DDOT":0},{"OBJECT_NAME":"COSMO-SKYMED 1","OBJECT_ID":"2007-023A","EPOCH":"2026-03-12T19:22:02.783424","MEAN_MOTION":14.96563676,"ECCENTRICITY":0.0001508,"INCLINATION":97.888,"RA_OF_ASC_NODE":262.8637,"ARG_OF_PERICENTER":97.2661,"MEAN_ANOMALY":262.8731,"EPHEMERIS_TYPE":0,"CLASSIFICATION_TYPE":"U","NORAD_CAT_ID":31598,"ELEMENT_SET_NO":999,"REV_AT_EPOCH":1537,"BSTAR":0.00039961,"MEAN_MOTION_DOT":4.488e-5,"MEAN_MOTION_DDOT":0},{"OBJECT_NAME":"COSMOS 2428","OBJECT_ID":"2007-029A","EPOCH":"2026-03-12T20:41:24.346176","MEAN_MOTION":14.12946785,"ECCENTRICITY":0.0009243,"INCLINATION":70.9436,"RA_OF_ASC_NODE":196.6845,"ARG_OF_PERICENTER":273.9053,"MEAN_ANOMALY":86.1011,"EPHEMERIS_TYPE":0,"CLASSIFICATION_TYPE":"U","NORAD_CAT_ID":31792,"ELEMENT_SET_NO":999,"REV_AT_EPOCH":96454,"BSTAR":4.3161e-5,"MEAN_MOTION_DOT":3.3e-7,"MEAN_MOTION_DDOT":0},{"OBJECT_NAME":"SL-16 R/B","OBJECT_ID":"2007-029B","EPOCH":"2026-03-12T16:41:19.065120","MEAN_MOTION":14.14834317,"ECCENTRICITY":0.0002274,"INCLINATION":70.9758,"RA_OF_ASC_NODE":166.0673,"ARG_OF_PERICENTER":276.0061,"MEAN_ANOMALY":251.2586,"EPHEMERIS_TYPE":0,"CLASSIFICATION_TYPE":"U","NORAD_CAT_ID":31793,"ELEMENT_SET_NO":999,"REV_AT_EPOCH":96579,"BSTAR":0.00011276,"MEAN_MOTION_DOT":1.7e-6,"MEAN_MOTION_DDOT":0},{"OBJECT_NAME":"KORONAS-FOTON","OBJECT_ID":"2009-003A","EPOCH":"2026-03-12T14:48:36.423072","MEAN_MOTION":15.43384574,"ECCENTRICITY":0.001145,"INCLINATION":82.4279,"RA_OF_ASC_NODE":272.8339,"ARG_OF_PERICENTER":140.0753,"MEAN_ANOMALY":220.1339,"EPHEMERIS_TYPE":0,"CLASSIFICATION_TYPE":"U","NORAD_CAT_ID":33504,"ELEMENT_SET_NO":999,"REV_AT_EPOCH":94619,"BSTAR":0.00023169,"MEAN_MOTION_DOT":0.00010403,"MEAN_MOTION_DDOT":0},{"OBJECT_NAME":"CZ-2C R/B","OBJECT_ID":"2011-030B","EPOCH":"2026-03-12T18:53:02.314176","MEAN_MOTION":14.81236481,"ECCENTRICITY":0.0052117,"INCLINATION":97.8543,"RA_OF_ASC_NODE":28.9877,"ARG_OF_PERICENTER":341.9542,"MEAN_ANOMALY":78.8297,"EPHEMERIS_TYPE":0,"CLASSIFICATION_TYPE":"U","NORAD_CAT_ID":37731,"ELEMENT_SET_NO":999,"REV_AT_EPOCH":79055,"BSTAR":0.00025847,"MEAN_MOTION_DOT":2.006e-5,"MEAN_MOTION_DDOT":0},{"OBJECT_NAME":"H-2A R/B","OBJECT_ID":"2012-025E","EPOCH":"2026-03-12T20:58:26.217120","MEAN_MOTION":14.95197851,"ECCENTRICITY":0.0043206,"INCLINATION":98.4737,"RA_OF_ASC_NODE":39.1754,"ARG_OF_PERICENTER":303.6931,"MEAN_ANOMALY":56.0171,"EPHEMERIS_TYPE":0,"CLASSIFICATION_TYPE":"U","NORAD_CAT_ID":38341,"ELEMENT_SET_NO":999,"REV_AT_EPOCH":74869,"BSTAR":0.00032577,"MEAN_MOTION_DOT":3.576e-5,"MEAN_MOTION_DDOT":0},{"OBJECT_NAME":"SHIJIAN-16 (SJ-16)","OBJECT_ID":"2013-057A","EPOCH":"2026-03-12T20:19:31.104192","MEAN_MOTION":14.92364244,"ECCENTRICITY":0.0015389,"INCLINATION":74.9728,"RA_OF_ASC_NODE":179.1116,"ARG_OF_PERICENTER":104.3757,"MEAN_ANOMALY":255.9141,"EPHEMERIS_TYPE":0,"CLASSIFICATION_TYPE":"U","NORAD_CAT_ID":39358,"ELEMENT_SET_NO":999,"REV_AT_EPOCH":67197,"BSTAR":0.00033329,"MEAN_MOTION_DOT":3.39e-5,"MEAN_MOTION_DDOT":0},{"OBJECT_NAME":"SL-4 R/B","OBJECT_ID":"2014-021B","EPOCH":"2026-03-11T23:11:23.282880","MEAN_MOTION":15.39266038,"ECCENTRICITY":0.0097301,"INCLINATION":51.6083,"RA_OF_ASC_NODE":326.1718,"ARG_OF_PERICENTER":111.2955,"MEAN_ANOMALY":249.8451,"EPHEMERIS_TYPE":0,"CLASSIFICATION_TYPE":"U","NORAD_CAT_ID":39679,"ELEMENT_SET_NO":999,"REV_AT_EPOCH":65662,"BSTAR":0.00033848,"MEAN_MOTION_DOT":0.00015383,"MEAN_MOTION_DDOT":0},{"OBJECT_NAME":"ALOS-2","OBJECT_ID":"2014-029A","EPOCH":"2026-03-12T19:54:58.777344","MEAN_MOTION":14.7951863,"ECCENTRICITY":0.0001489,"INCLINATION":97.9185,"RA_OF_ASC_NODE":170.3809,"ARG_OF_PERICENTER":96.1503,"MEAN_ANOMALY":263.9879,"EPHEMERIS_TYPE":0,"CLASSIFICATION_TYPE":"U","NORAD_CAT_ID":39766,"ELEMENT_SET_NO":999,"REV_AT_EPOCH":63733,"BSTAR":0.00028585,"MEAN_MOTION_DOT":2.086e-5,"MEAN_MOTION_DDOT":0},{"OBJECT_NAME":"YAOGAN-29","OBJECT_ID":"2015-069A","EPOCH":"2026-03-12T19:56:14.364384","MEAN_MOTION":14.82998884,"ECCENTRICITY":0.0001673,"INCLINATION":98.0145,"RA_OF_ASC_NODE":100.2687,"ARG_OF_PERICENTER":31.289,"MEAN_ANOMALY":328.8423,"EPHEMERIS_TYPE":0,"CLASSIFICATION_TYPE":"U","NORAD_CAT_ID":41038,"ELEMENT_SET_NO":999,"REV_AT_EPOCH":55634,"BSTAR":7.2819e-5,"MEAN_MOTION_DOT":5.37e-6,"MEAN_MOTION_DDOT":0},{"OBJECT_NAME":"ASTRO-H (HITOMI)","OBJECT_ID":"2016-012A","EPOCH":"2026-03-12T19:22:05.549088","MEAN_MOTION":15.10030451,"ECCENTRICITY":0.0009729,"INCLINATION":31.0005,"RA_OF_ASC_NODE":336.4315,"ARG_OF_PERICENTER":2.6624,"MEAN_ANOMALY":357.4065,"EPHEMERIS_TYPE":0,"CLASSIFICATION_TYPE":"U","NORAD_CAT_ID":41337,"ELEMENT_SET_NO":999,"REV_AT_EPOCH":55270,"BSTAR":0.0002213,"MEAN_MOTION_DOT":3.786e-5,"MEAN_MOTION_DDOT":0},{"OBJECT_NAME":"HXMT (HUIYAN)","OBJECT_ID":"2017-034A","EPOCH":"2026-03-12T20:54:35.650080","MEAN_MOTION":15.17515451,"ECCENTRICITY":0.0033228,"INCLINATION":43.0161,"RA_OF_ASC_NODE":358.9845,"ARG_OF_PERICENTER":255.3231,"MEAN_ANOMALY":104.3932,"EPHEMERIS_TYPE":0,"CLASSIFICATION_TYPE":"U","NORAD_CAT_ID":42758,"ELEMENT_SET_NO":999,"REV_AT_EPOCH":48302,"BSTAR":0.00035301,"MEAN_MOTION_DOT":7.075e-5,"MEAN_MOTION_DDOT":0}]
